{"type": "FeatureCollection", "features": [ {"type": "Feature", "properties": {"norad_id": 30071, "name": "FENGYUN 1C DEB", "group": "fengyun-1c-debris", "lat": -66.51800280419522, "lon": -106.07282514234869, "alt_km": 751.6370842778242, "timestamp": "2025-12-20T22:39:10.900279+00:00", "meta": {"OBJECT_NAME": "FENGYUN 1C DEB", "OBJECT_ID": "1999-025PY", "EPOCH": "2025-12-20T05:15:41.859936", "MEAN_MOTION": 14.52269439, "ECCENTRICITY": 0.00385935, "INCLINATION": 98.6589, "RA_OF_ASC_NODE": 93.7144, "ARG_OF_PERICENTER": 87.1283, "MEAN_ANOMALY": 334.4262, "EPHEMERIS_TYPE": 0, "CLASSIFICATION_TYPE": "U", "NORAD_CAT_ID": 30071, "ELEMENT_SET_NO": 999, "REV_AT_EPOCH": 98335, "BSTAR": 0.0014809439, "MEAN_MOTION_DOT": 6.031e-05, "MEAN_MOTION_DDOT": 0}, "tle": {"line1": "1 30071U 99025PY  25354.21923449  .00006031  00000+0  14809-2 0  9992", "line2": "2 30071  98.6589  93.7144 0038593  87.1283 334.4262 14.52269439983350"}}, "geometry": {"type": "Point", "coordinates": [-106.07282514234869, -66.51800280419522]}}, {"type": "Feature", "properties": {"norad_id": 30072, "name": "FENGYUN 1C DEB", "group": "fengyun-1c-debris", "lat": 32.879632348864575, "lon": -30.399627454751013, "alt_km": 772.21202195164, "timestamp": "2025-12-20T22:39:10.900288+00:00", "meta": {"OBJECT_NAME": "FENGYUN 1C DEB", "OBJECT_ID": "1999-025PZ", "EPOCH": "2025-12-20T06:56:14.193024", "MEAN_MOTION": 14.37907704, "ECCENTRICITY": 0.0060023, "INCLINATION": 99.0759, "RA_OF_ASC_NODE": 142.9783, "ARG_OF_PERICENTER": 250.7387, "MEAN_ANOMALY": 108.7299, "EPHEMERIS_TYPE": 0, "CLASSIFICATION_TYPE": "U", "NORAD_CAT_ID": 30072, "ELEMENT_SET_NO": 999, "REV_AT_EPOCH": 97279, "BSTAR": 0.0022000175, "MEAN_MOTION_DOT": 6.739e-05, "MEAN_MOTION_DDOT": 0}, "tle": {"line1": "1 30072U 99025PZ  25354.28905316  .00006739  00000+0  22000-2 0  9990", "line2": "2 30072  99.0759 142.9783 0060023 250.7387 108.7299 14.37907704972792"}}, "geometry": {"type": "Point", "coordinates": [-30.399627454751013, 32.879632348864575]}}, {"type": "Feature", "properties": {"norad_id": 30073, "name": "FENGYUN 1C DEB", "group": "fengyun-1c-debris", "lat": -30.99147719367607, "lon": 142.85362895435665, "alt_km": 809.0871744054475, "timestamp": "2025-12-20T22:39:10.900297+00:00", "meta": {"OBJECT_NAME": "FENGYUN 1C DEB", "OBJECT_ID": "1999-025QA", "EPOCH": "2025-12-20T12:06:27.096192", "MEAN_MOTION": 14.18709161, "ECCENTRICITY": 0.00530227, "INCLINATION": 99.4119, "RA_OF_ASC_NODE": 328.1055, "ARG_OF_PERICENTER": 258.7916, "MEAN_ANOMALY": 230.0876, "EPHEMERIS_TYPE": 0, "CLASSIFICATION_TYPE": "U", "NORAD_CAT_ID": 30073, "ELEMENT_SET_NO": 999, "REV_AT_EPOCH": 97035, "BSTAR": 0.00098640115, "MEAN_MOTION_DOT": 2.026e-05, "MEAN_MOTION_DDOT": 0}, "tle": {"line1": "1 30073U 99025QA  25354.50448028  .00002026  00000+0  98640-3 0  9997", "line2": "2 30073  99.4119 328.1055 0053022 258.7916 230.0876 14.18709161970350"}}, "geometry": {"type": "Point", "coordinates": [142.85362895435665, -30.99147719367607]}}, {"type": "Feature", "properties": {"norad_id": 30074, "name": "FENGYUN 1C DEB", "group": "fengyun-1c-debris", "lat": 24.031057567188643, "lon": -114.54832098836097, "alt_km": 785.8344473076459, "timestamp": "2025-12-20T22:39:10.900306+00:00", "meta": {"OBJECT_NAME": "FENGYUN 1C DEB", "OBJECT_ID": "1999-025QB", "EPOCH": "2025-12-19T03:26:08.885760", "MEAN_MOTION": 14.12888064, "ECCENTRICITY": 0.00970813, "INCLINATION": 99.1293, "RA_OF_ASC_NODE": 59.5048, "ARG_OF_PERICENTER": 134.1894, "MEAN_ANOMALY": 226.7306, "EPHEMERIS_TYPE": 0, "CLASSIFICATION_TYPE": "U", "NORAD_CAT_ID": 30074, "ELEMENT_SET_NO": 999, "REV_AT_EPOCH": 96752, "BSTAR": 0.0010228859, "MEAN_MOTION_DOT": 1.945e-05, "MEAN_MOTION_DDOT": 0}, "tle": {"line1": "1 30074U 99025QB  25353.14315840  .00001945  00000+0  10229-2 0  9997", "line2": "2 30074  99.1293  59.5048 0097081 134.1894 226.7306 14.12888064967522"}}, "geometry": {"type": "Point", "coordinates": [-114.54832098836097, 24.031057567188643]}}, {"type": "Feature", "properties": {"norad_id": 30075, "name": "FENGYUN 1C DEB", "group": "fengyun-1c-debris", "lat": 8.87915518925526, "lon": 43.865278917176276, "alt_km": 976.3826354828816, "timestamp": "2025-12-20T22:39:10.900315+00:00", "meta": {"OBJECT_NAME": "FENGYUN 1C DEB", "OBJECT_ID": "1999-025QC", "EPOCH": "2025-12-20T02:14:46.116384", "MEAN_MOTION": 13.92535964, "ECCENTRICITY": 0.00913208, "INCLINATION": 99.3607, "RA_OF_ASC_NODE": 44.483, "ARG_OF_PERICENTER": 157.2968, "MEAN_ANOMALY": 272.1009, "EPHEMERIS_TYPE": 0, "CLASSIFICATION_TYPE": "U", "NORAD_CAT_ID": 30075, "ELEMENT_SET_NO": 999, "REV_AT_EPOCH": 96167, "BSTAR": 0.00020885379, "MEAN_MOTION_DOT": 2.33e-06, "MEAN_MOTION_DDOT": 0}, "tle": {"line1": "1 30075U 99025QC  25354.09358931  .00000233  00000+0  20885-3 0  9990", "line2": "2 30075  99.3607  44.4830 0091320 157.2968 272.1009 13.92535964961674"}}, "geometry": {"type": "Point", "coordinates": [43.865278917176276, 8.87915518925526]}}, {"type": "Feature", "properties": {"norad_id": 30076, "name": "FENGYUN 1C DEB", "group": "fengyun-1c-debris", "lat": -54.25273319074345, "lon": -5.503607741209157, "alt_km": 1061.3925010836101, "timestamp": "2025-12-20T22:39:10.900324+00:00", "meta": {"OBJECT_NAME": "FENGYUN 1C DEB", "OBJECT_ID": "1999-025QD", "EPOCH": "2025-12-20T11:25:21.780192", "MEAN_MOTION": 13.76295887, "ECCENTRICITY": 0.01757368, "INCLINATION": 99.2388, "RA_OF_ASC_NODE": 340.9741, "ARG_OF_PERICENTER": 73.5657, "MEAN_ANOMALY": 75.5988, "EPHEMERIS_TYPE": 0, "CLASSIFICATION_TYPE": "U", "NORAD_CAT_ID": 30076, "ELEMENT_SET_NO": 999, "REV_AT_EPOCH": 95000, "BSTAR": 0.00024946894, "MEAN_MOTION_DOT": 2.31e-06, "MEAN_MOTION_DDOT": 0}, "tle": {"line1": "1 30076U 99025QD  25354.47594653  .00000231  00000+0  24947-3 0  9997", "line2": "2 30076  99.2388 340.9741 0175736  73.5657  75.5988 13.76295887950009"}}, "geometry": {"type": "Point", "coordinates": [-5.503607741209157, -54.25273319074345]}}, {"type": "Feature", "properties": {"norad_id": 30077, "name": "FENGYUN 1C DEB", "group": "fengyun-1c-debris", "lat": 56.929893657638736, "lon": -3.350898066467331, "alt_km": 878.7401771284558, "timestamp": "2025-12-20T22:39:10.900333+00:00", "meta": {"OBJECT_NAME": "FENGYUN 1C DEB", "OBJECT_ID": "1999-025QE", "EPOCH": "2025-12-20T12:51:31.449024", "MEAN_MOTION": 14.07079929, "ECCENTRICITY": 0.0020516, "INCLINATION": 98.7575, "RA_OF_ASC_NODE": 9.9474, "ARG_OF_PERICENTER": 241.2001, "MEAN_ANOMALY": 270.7787, "EPHEMERIS_TYPE": 0, "CLASSIFICATION_TYPE": "U", "NORAD_CAT_ID": 30077, "ELEMENT_SET_NO": 999, "REV_AT_EPOCH": 97222, "BSTAR": -5.0963491e-05, "MEAN_MOTION_DOT": -1.28e-06, "MEAN_MOTION_DDOT": 0}, "tle": {"line1": "1 30077U 99025QE  25354.53578066 -.00000128  00000+0 -50963-4 0  9990", "line2": "2 30077  98.7575   9.9474 0020516 241.2001 270.7787 14.07079929972225"}}, "geometry": {"type": "Point", "coordinates": [-3.350898066467331, 56.929893657638736]}}, {"type": "Feature", "properties": {"norad_id": 30078, "name": "FENGYUN 1C DEB", "group": "fengyun-1c-debris", "lat": 60.710501328552176, "lon": 53.74511210995796, "alt_km": 845.6673931000441, "timestamp": "2025-12-20T22:39:10.900343+00:00", "meta": {"OBJECT_NAME": "FENGYUN 1C DEB", "OBJECT_ID": "1999-025QF", "EPOCH": "2025-12-19T23:35:19.663872", "MEAN_MOTION": 14.2317323, "ECCENTRICITY": 0.0053123, "INCLINATION": 98.8324, "RA_OF_ASC_NODE": 68.8739, "ARG_OF_PERICENTER": 259.3486, "MEAN_ANOMALY": 281.6161, "EPHEMERIS_TYPE": 0, "CLASSIFICATION_TYPE": "U", "NORAD_CAT_ID": 30078, "ELEMENT_SET_NO": 999, "REV_AT_EPOCH": 97216, "BSTAR": 0.00093352, "MEAN_MOTION_DOT": 2.095e-05, "MEAN_MOTION_DDOT": 0}, "tle": {"line1": "1 30078U 99025QF  25353.98286648  .00002095  00000+0  93352-3 0  9992", "line2": "2 30078  98.8324  68.8739 0053123 259.3486 281.6161 14.23173230972162"}}, "geometry": {"type": "Point", "coordinates": [53.74511210995796, 60.710501328552176]}}, {"type": "Feature", "properties": {"norad_id": 30079, "name": "FENGYUN 1C DEB", "group": "fengyun-1c-debris", "lat": -37.527767787122286, "lon": -136.62855590563794, "alt_km": 864.1946515658246, "timestamp": "2025-12-20T22:39:10.900352+00:00", "meta": {"OBJECT_NAME": "FENGYUN 1C DEB", "OBJECT_ID": "1999-025QG", "EPOCH": "2025-12-20T15:32:22.310880", "MEAN_MOTION": 14.00798032, "ECCENTRICITY": 0.00848376, "INCLINATION": 99.0336, "RA_OF_ASC_NODE": 50.0971, "ARG_OF_PERICENTER": 276.7031, "MEAN_ANOMALY": 248.2365, "EPHEMERIS_TYPE": 0, "CLASSIFICATION_TYPE": "U", "NORAD_CAT_ID": 30079, "ELEMENT_SET_NO": 999, "REV_AT_EPOCH": 96648, "BSTAR": 9.4819723e-05, "MEAN_MOTION_DOT": 1.01e-06, "MEAN_MOTION_DDOT": 0}, "tle": {"line1": "1 30079U 99025QG  25354.64748045  .00000101  00000+0  94820-4 0  9999", "line2": "2 30079  99.0336  50.0971 0084837 276.7031 248.2365 14.00798032966486"}}, "geometry": {"type": "Point", "coordinates": [-136.62855590563794, -37.527767787122286]}}, {"type": "Feature", "properties": {"norad_id": 30080, "name": "FENGYUN 1C DEB", "group": "fengyun-1c-debris", "lat": -39.16064955681984, "lon": 148.04311152635233, "alt_km": 959.5634065625636, "timestamp": "2025-12-20T22:39:10.900362+00:00", "meta": {"OBJECT_NAME": "FENGYUN 1C DEB", "OBJECT_ID": "1999-025QH", "EPOCH": "2025-12-20T10:24:56.636640", "MEAN_MOTION": 14.10829748, "ECCENTRICITY": 0.01336154, "INCLINATION": 98.699, "RA_OF_ASC_NODE": 334.7122, "ARG_OF_PERICENTER": 38.8871, "MEAN_ANOMALY": 112.5189, "EPHEMERIS_TYPE": 0, "CLASSIFICATION_TYPE": "U", "NORAD_CAT_ID": 30080, "ELEMENT_SET_NO": 999, "REV_AT_EPOCH": 97346, "BSTAR": 0.00021028035, "MEAN_MOTION_DOT": 3.67e-06, "MEAN_MOTION_DDOT": 0}, "tle": {"line1": "1 30080U 99025QH  25354.43398885  .00000367  00000+0  21028-3 0  9994", "line2": "2 30080  98.6990 334.7122 0133615  38.8871 112.5189 14.10829748973460"}}, "geometry": {"type": "Point", "coordinates": [148.04311152635233, -39.16064955681984]}}]}